OBJECT_NAME,OBJECT_ID,EPOCH,MEAN_MOTION,ECCENTRICITY,INCLINATION,RA_OF_ASC_NODE,ARG_OF_PERICENTER,MEAN_ANOMALY,EPHEMERIS_TYPE,CLASSIFICATION_TYPE,NORAD_CAT_ID,ELEMENT_SET_NO,REV_AT_EPOCH,BSTAR,MEAN_MOTION_DOT,MEAN_MOTION_DDOT
STARS (KUKAI),2009-002G,2026-07-06T08:25:09.653088,14.95893648,.00102946,98.1560,135.4433,103.6836,256.5531,0,U,33498,999,94134,.38755399E-3,.4277E-4,0
KKS-1 (KISEKI),2009-002H,2026-07-06T19:42:56.177856,14.83174932,.000678,98.1180,110.5748,218.7536,141.3192,0,U,33499,999,93910,.15632E-3,.122E-4,0
UK-DMC 2,2009-041C,2026-07-06T21:13:50.615040,14.76090068,.0001337,97.8864,322.3723,98.6238,261.5124,0,U,35683,999,90947,.24706E-3,.1655E-4,0
OCEANSAT-2,2009-051A,2026-07-06T20:35:48.612192,13.99657766,.001678,98.2318,172.7459,177.7227,182.4019,0,U,35931,999,88208,-.10424E-3,-.19E-5,0
SWISSCUBE,2009-051B,2026-07-06T17:39:33.818112,14.62519591,.0007377,98.4019,95.9636,142.1539,218.0181,0,U,35932,999,89201,.18748E-3,.901E-5,0
BEESAT-1,2009-051C,2026-07-06T16:29:16.621152,14.61752775,.0005594,98.3946,95.5083,152.8546,207.2947,0,U,35933,999,89203,.17521E-3,.825E-5,0
ITUPSAT1,2009-051E,2026-07-06T16:40:46.178688,14.60470304,.0007469,98.4028,94.6875,168.0612,192.0766,0,U,35935,999,89158,.16401E-3,.747E-5,0
DMSP 5D-3 F18 (USA 210),2009-057A,2026-07-06T19:12:04.625856,14.14907573,.0010724,98.9048,168.5274,189.3848,170.7127,0,U,35951,999,86236,.12156E-3,.19E-5,0
PROBA-2,2009-059B,2026-07-06T18:32:40.729632,14.54871067,.0012439,98.2457,10.8544,215.7481,144.2885,0,U,36037,999,88437,.54159E-4,.187E-5,0
YAOGAN-7,2009-069A,2026-07-06T15:41:27.383424,14.78030005,.00241,98.0047,73.3985,339.8276,20.1980,0,U,36110,999,89250,.71723E-4,.467E-5,0
XIWANG-1 (HOPE-1),2009-072B,2026-07-06T20:26:23.011008,13.16439928,.0007295,100.4036,141.3705,183.8197,176.2861,0,U,36122,999,79559,.64798E-3,.203E-5,0
COSMOS 2463,2010-017A,2026-07-06T16:16:32.767392,13.71666839,.0037569,82.9588,235.3856,76.7397,42.2999,0,U,36519,999,81060,.21698E-4,.35E-6,0
CARTOSAT-2B,2010-035A,2026-07-06T19:53:26.922048,14.78610538,.0012316,97.9937,238.2523,123.4294,236.8097,0,U,36795,999,86275,.11417E-3,.784E-5,0
TISAT 1,2010-035E,2026-07-06T09:13:31.109376,15.32488033,.00040163,98.0714,135.6467,127.7784,232.3820,0,U,36799,999,87064,.62688898E-3,.19611E-3,0
YAOGAN-10,2010-038A,2026-07-06T21:32:58.079616,14.85411784,.0001614,97.8969,211.1446,84.5037,36.1055,0,U,36834,999,86013,.20947E-3,.175E-4,0
SHIJIAN-6 04B (SJ-6 04B),2010-051B,2026-07-06T20:15:13.889664,14.99378214,.0006978,97.8738,193.4623,240.8021,119.2504,0,U,37180,999,85862,.12733E-3,.1497E-4,0
FENGYUN 3B,2010-059A,2026-07-06T21:42:38.228832,14.14846047,.0022922,98.9606,234.0018,129.0820,352.0889,0,U,37214,999,81021,-.94349E-5,-.63E-6,0
COSMO-SKYMED 4,2010-060A,2026-07-06T19:39:43.691616,14.82165514,.000152,97.8895,11.1347,86.2606,273.8781,0,U,37216,999,84747,.16285E-3,.1245E-4,0
O/OREOS (USA 219),2010-062C,2026-07-06T16:24:39.825792,14.93829265,.0013447,71.9707,36.1728,21.9928,338.1817,0,U,37224,999,11955,.19618E-3,.2024E-4,0
RESOURCESAT-2,2011-015A,2026-07-06T19:06:32.408352,14.21604729,.0011088,98.7635,255.1018,195.0494,165.0355,0,U,37387,999,78896,.53528E-4,.73E-6,0
YOUTHSAT,2011-015B,2026-07-06T21:03:55.940256,14.25638232,.0013238,98.3695,161.0451,285.9656,132.9346,0,U,37388,999,79044,.83336E-4,.156E-5,0
APRIZESAT 6,2011-044F,2026-07-06T17:23:42.052992,14.76947912,.0043727,98.2347,98.6222,25.1391,28.6385,0,U,37793,999,80003,.12153E-3,.812E-5,0
JUGNU,2011-058B,2026-07-06T03:22:37.482240,14.13781484,.0018346,19.9587,193.2770,285.8681,133.6572,0,U,37839,999,76171,.70824E-4,.403E-5,0
SRMSAT,2011-058D,2026-07-06T08:57:33.674688,14.11579689,.0011875,19.9727,303.3445,55.1210,344.5933,0,U,37841,999,76053,.64430167E-4,.384E-5,0
SUOMI NPP,2011-061A,2026-07-06T20:45:49.628736,14.19521410,.0000569,98.7955,128.6071,278.3728,81.7383,0,U,37849,999,76123,.49892E-4,.61E-6,0
YAOGAN-12,2011-066B,2026-07-06T20:42:42.786144,15.26838538,.0010512,97.1130,225.5073,148.0338,212.1541,0,U,37875,999,81504,.17053E-3,.4434E-4,0
